PROBA-1                 
1 26958U 01049B   15355.19060423  .00000880  00000-0  82462-4 0  9990
2 26958  97.4929 333.0684 0074465 353.5764   6.4505 14.94478614770257
BIRD 2                  
1 26959U 01049C   15355.09622585  .00008707  00000-0  29377-3 0  9994
2 26959  97.7609 264.0561 0011535 136.9570 223.2574 15.30902392782973
CUTE-1 (CO-55)          
1 27844U 03031E   15355.01732712  .00000244  00000-0  13061-3 0  9998
2 27844  98.6943   0.8755 0010626 118.3187 241.9064 14.21890435646981
CUBESAT XI-IV (CO-57)   
1 27848U 03031J   15355.01377833  .00000202  00000-0  11212-3 0  9991
2 27848  98.7041   0.8753 0010471 125.4765 234.7391 14.21525039646889
GENESIS 1               
1 29252U 06029A   15354.17049594  .00002368  00000-0  13287-3 0  9997
2 29252  64.5070 263.9283 0045383 246.8622 260.7197 15.15270367519206
FALCONSAT-3             
1 30776U 07006E   15354.22021248  .00010380  00000-0  38220-3 0  9995
2 30776  35.4256 272.7311 0001143 249.4118 110.6482 15.27118108484733
GENESIS 2               
1 31789U 07028A   15354.18651440  .00003106  00000-0  17344-3 0  9994
2 31789  64.5065 299.9133 0050471 289.6389  69.9289 15.14532305466316
APRIZESAT 4             
1 35684U 09041D   15354.40677314  .00000540  00000-0  79593-4 0  9996
2 35684  98.0829 281.6987 0048700  53.6065  63.8732 14.78758129344618
APRIZESAT 3             
1 35686U 09041F   15354.88152985  .00001001  00000-0  11427-3 0  9996
2 35686  98.2233 322.1919 0073469 343.6281  16.2561 14.86672140346306
PROBA-2                 
1 36037U 09059B   15354.14643877  .00000161  00000-0  49947-4 0  9995
2 36037  98.2665 184.6877 0012631 210.1604 149.8866 14.52908024324988
APRIZESAT 5             
1 37792U 11044E   15355.12359853  .00000562  00000-0  90001-4 0  9990
2 37792  98.2662 113.5298 0058412 345.3044  14.6463 14.74825604233659
APRIZESAT 6             
1 37793U 11044F   15355.12136869  .00000491  00000-0  85500-4 0  9990
2 37793  98.2345 104.2223 0047313   3.2148 119.5433 14.71940621233225
TET-1                   
1 38710U 12039D   15354.82808955  .00012571  00000-0  32445-3 0  9994
2 38710  97.4880 283.3341 0003196  52.4458 307.7077 15.39292816190320
STSAT-2C                
1 39068U 13003A   15355.21585427  .00062032  36581-7  81120-3 0  9994
2 39068  80.2363  72.3501 0502895   8.8544 352.1121 14.78557945151115
CUSAT 1                 
1 39266U 13055B   15355.11090709  .00016080  00000-0  47582-3 0  9990
2 39266  80.9899 212.9753 0695591  12.0669 349.6238 14.21122191114475
STPSAT-3                
1 39380U 13064A   15354.39895377  .00008211  00000-0  27665-3 0  9997
2 39380  40.5022 117.2614 0003725 100.5049 259.6183 15.30774716116155
APRIZESAT 7             
1 39416U 13066A   15355.14729804  .00000686  00000-0  88943-4 0  9999
2 39416  97.7129  55.3903 0040368 237.5177 122.2132 14.83409776112565
APRIZESAT 8             
1 39425U 13066K   15355.13849840  .00000568  00000-0  79107-4 0  9992
2 39425  97.7082  52.0997 0051017 243.8865 115.7093 14.80696484112381
BUGSAT-1 (TITA)         
1 40014U 14033E   15355.22206946  .00002117  00000-0  20266-3 0  9990
2 40014  97.9560 261.9452 0031959 330.9528  28.9928 14.93940547 81961
SAUDISAT 4              
1 40016U 14033G   15355.19744896  .00000409  00000-0  67602-4 0  9997
2 40016  97.9259 245.0150 0047381 238.3632 121.2950 14.74925007 80963
TABLETSAT-AURORA        
1 40017U 14033H   15355.06050820  .00001056  00000-0  10983-3 0  9999
2 40017  97.9516 259.7612 0023357 328.9016  31.0661 14.91912029 81826
APRIZESAT 9             
1 40018U 14033J   15355.19076101  .00000369  00000-0  68187-4 0  9990
2 40018  97.9168 240.1653 0070474 247.7515 111.6206 14.69628533 80573
APRIZESAT 10            
1 40019U 14033K   15355.17958922  .00000366  00000-0  71358-4 0  9990
2 40019  97.9124 237.5316 0083272 254.0243 105.1776 14.66715645 80467
AISAT                   
1 40054U 14034B   15355.23254218  .00002693  00000-0  39769-3 0  9998
2 40054  98.2055  75.8555 0012793 352.6070   7.4948 14.76081170 79445
CANX-4                  
1 40055U 14034C   15355.19481884  .00000636  00000-0  10398-3 0  9997
2 40055  98.2067  75.2698 0014342   3.2985 356.8315 14.74296020 79389
CANX-5                  
1 40056U 14034D   15355.19492357  .00000641  00000-0  10474-3 0  9996
2 40056  98.2067  75.2689 0014376   3.6021 356.5288 14.74295969 79389
TDS 1                   
1 40076U 14037H   15355.17922104  .00000846  00000-0  11634-3 0  9993
2 40076  98.3344  74.2621 0006243  32.9011 327.2620 14.81085611 78498
TIANTUO 2               
1 40144U 14053B   15355.24458008  .00004162  00000-0  14011-3 0  9999
2 40144  97.3693  70.8830 0013651  56.1963  21.2178 15.31253454 71691
